[{"OBJECT_NAME":"STARLINK-30817","OBJECT_ID":"2023-171J","EPOCH":"2026-03-09T22:00:01.999584","MEAN_MOTION":15.24788853,"ECCENTRICITY":0.00015098,"INCLINATION":42.9994,"RA_OF_ASC_NODE":283.8758,"ARG_OF_PERICENTER":257.9455,"MEAN_ANOMALY":332.124,"EPHEMERIS_TYPE":0,"CLASSIFICATION_TYPE":"U","NORAD_CAT_ID":58238,"ELEMENT_SET_NO":999,"REV_AT_EPOCH":578,"BSTAR":0.060806816,"MEAN_MOTION_DOT":0.01706436,"MEAN_MOTION_DDOT":0},{"OBJECT_NAME":"FLOCK 4BE-2","OBJECT_ID":"2024-149AV","EPOCH":"2026-03-09T18:13:11.817984","MEAN_MOTION":15.43222987,"ECCENTRICITY":0.00028517,"INCLINATION":97.3841,"RA_OF_ASC_NODE":153.9677,"ARG_OF_PERICENTER":272.6636,"MEAN_ANOMALY":87.4286,"EPHEMERIS_TYPE":0,"CLASSIFICATION_TYPE":"U","NORAD_CAT_ID":60511,"ELEMENT_SET_NO":999,"REV_AT_EPOCH":8712,"BSTAR":0.0010005799,"MEAN_MOTION_DOT":0.0004454,"MEAN_MOTION_DDOT":0}]
